OBJECT_NAME,OBJECT_ID,EPOCH,MEAN_MOTION,ECCENTRICITY,INCLINATION,RA_OF_ASC_NODE,ARG_OF_PERICENTER,MEAN_ANOMALY,EPHEMERIS_TYPE,CLASSIFICATION_TYPE,NORAD_CAT_ID,ELEMENT_SET_NO,REV_AT_EPOCH,BSTAR,MEAN_MOTION_DOT,MEAN_MOTION_DDOT
LEMUR-2-ROUNDTRIPPER,2025-009DG,2026-07-15T18:26:09.797280,15.04237419,.00044796,97.7252,279.4125,62.8662,297.3020,0,U,62711,999,8192,.33299667E-3,.4569E-4,0
LEMUR-2-MYNAMEISJEFF,2025-009DH,2026-07-15T18:23:59.378208,15.04228449,.00041154,97.7301,279.8094,96.2499,263.9195,0,U,62712,999,8192,.32837243E-3,.4503E-4,0
LEMUR-2-LEIA-PHILIP,2025-052AN,2026-07-15T06:29:12.941952,14.97391480,.00050958,97.6805,87.7451,119.1718,241.0014,0,U,63246,999,7287,.17093362E-4,.141E-5,0
LEMUR-2-LIA-MARTIN,2025-052AQ,2026-07-15T06:21:19.751616,14.98030415,.00052999,97.6869,88.2585,89.7289,270.4540,0,U,63248,999,7288,.1764308E-3,.2027E-4,0
LEMUR-2-DELOITTE-1,2025-052BB,2026-07-15T13:54:12.637152,14.97784138,.0002572,97.6881,88.8983,64.8549,295.2940,0,U,63259,999,7294,.21287E-3,.2441E-4,0
LEMUR-2-EMERSONROSE,2025-052BD,2026-07-15T12:37:58.203840,14.99293057,.00027092,97.6885,89.4601,60.0626,300.0865,0,U,63261,999,7298,.22890076E-3,.2736E-4,0
LEMUR-2-MARACHE-FRAN,2025-052BE,2026-07-15T05:10:08.864832,15.00315354,.00051768,97.6837,89.5210,252.2220,107.8439,0,U,63262,999,7296,.13855465E-3,.1678E-4,0
LEMUR-2-THEFALCONER,2025-052BG,2026-07-15T06:37:04.013760,14.97563100,.00002945,97.6830,88.1900,296.3949,63.7243,0,U,63264,999,7289,.96507585E-4,.1069E-4,0
LEMUR-2-UNTITLED-SC,2025-061A,2026-07-15T21:54:52.239168,15.13648334,.00192605,97.5657,172.0714,160.7260,199.4704,0,U,63351,999,7193,.10072475E-3,.1751E-4,0
LEMUR-2-ESPERANZA,2025-061B,2026-07-15T21:19:16.835520,15.13754973,.00188853,97.5664,172.1471,159.9774,200.2202,0,U,63352,999,7193,.10044626E-3,.1751E-4,0
LEMUR-2-KREMPEL-BRO2,2025-061C,2026-07-15T21:46:19.070688,15.14181271,.00200603,97.5706,172.7357,152.8912,207.3371,0,U,63353,999,7195,.92419575E-4,.1626E-4,0
LEMUR-2-THERMORAPTOR,2025-061D,2026-07-15T21:18:16.015968,15.14264291,.00197894,97.5712,172.7977,151.8094,208.4213,0,U,63354,999,7195,.11648411E-3,.2072E-4,0
LEMUR-2-NEUROSPICY,2025-061E,2026-07-15T22:09:26.093952,15.14383522,.00175818,97.5639,172.4370,154.5524,205.6577,0,U,63355,999,7196,.95343224E-4,.1688E-4,0
LEMUR-2-TILLINFINITY,2025-061F,2026-07-15T21:09:09.622368,15.14967400,.00191366,97.5625,172.7060,143.6125,216.6413,0,U,63356,999,7198,.12103532E-3,.2199E-4,0
LEMUR-2-KREMPEL-BRO1,2025-061G,2026-07-15T22:11:21.635808,15.14774664,.00197546,97.5626,172.6569,144.8713,215.3826,0,U,63357,999,7198,.96036586E-4,.1722E-4,0
LEMUR-2-LANGER2SPACE,2025-061H,2026-07-15T21:22:41.610432,15.14467754,.0017462,97.5633,172.4259,152.9152,207.2994,0,U,63358,999,7196,.11276979E-3,.2014E-4,0
LEMUR-2-BALTO,2025-052BH,2026-07-15T22:24:01.760544,15.00367882,.00050871,97.6928,90.2192,324.4580,35.6304,0,U,63395,999,7307,.20163538E-3,.2472E-4,0
LEMUR-2-KRISH,2025-135AK,2026-07-15T19:53:49.892352,14.96451015,.00012799,97.7774,311.5152,96.4865,263.6502,0,U,64561,999,5820,.16139543E-3,.1773E-4,0
LEMUR-2-HUBBLE-4,2025-135AP,2026-07-15T21:04:25.586688,14.93687144,.00027253,97.7720,310.4520,160.3081,199.8244,0,U,64565,999,5815,.80239273E-4,.792E-5,0
LEMUR-2-SEJONG-2,2025-135BL,2026-07-15T22:00:05.912640,14.96914863,.00040066,97.7709,311.7477,215.3704,144.7252,0,U,64586,999,5824,.18859341E-3,.2107E-4,0
LEMUR-2-HUBBLE-5,2025-135BT,2026-07-15T21:16:48.084960,14.94214757,.00043553,97.7741,311.1302,232.4471,127.6353,0,U,64840,999,5819,.59795385E-4,.584E-5,0
LEMUR-2-KARENDARRELL,2025-135BU,2026-07-15T19:07:08.897664,15.00505264,.0012499,97.7719,312.9676,102.9205,257.3415,0,U,64841,999,5830,.34587499E-3,.4305E-4,0
LEMUR-2-LUCILLE-ROSE,2025-135BV,2026-07-15T21:40:59.006208,15.00493417,.0014989,97.7712,313.1096,186.8472,173.2549,0,U,65403,999,5294,.26742452E-3,.3315E-4,0
LEMUR-2-AFFIE-WAUWIE,2025-248C,2026-07-15T08:51:52.657344,15.28256430,.00087669,45.3887,322.1687,251.4181,108.5756,0,U,66295,999,3890,.46577019E-3,.12792E-3,0
OTTER SDM,2025-276N,2026-07-15T03:54:58.180896,15.20056680,.00042957,97.4206,269.1787,254.0411,106.0351,0,U,66678,999,3466,.16803421E-3,.3557E-4,0
LEMUR-2-STAS-GORBUK,2025-276W,2026-07-15T04:25:49.159200,15.19658337,.00036139,97.4240,269.2517,248.2139,111.8711,0,U,66686,999,3466,.13639192E-3,.2841E-4,0
LEMUR-2-TEODOR,2025-276DG,2026-07-15T17:30:35.244576,15.21341179,.00022035,97.4144,270.0602,87.3705,272.7783,0,U,66768,999,3478,.14257158E-3,.3124E-4,0
LEMUR-2-LAILA,2025-276DQ,2026-07-15T18:21:41.262624,15.21566764,.00029348,97.4167,270.2341,93.5101,266.6471,0,U,66776,999,3479,.13977674E-3,.3082E-4,0
LEMUR-2-CELIJO-SB-PK,2025-276DW,2026-07-15T04:26:13.736544,15.00282855,.00070307,97.5197,266.0383,64.1114,296.0834,0,U,66781,999,2682,.21422816E-3,.2627E-4,0
